COSMOS 2433 (720)       
1 32275U 07052A   26058.57858892 -.00000051  00000+0  00000+0 0  9991
2 32275  65.6379 319.6247 0002458 270.9483  89.0715  2.13103915142722
COSMOS 2432 (719)       
1 32276U 07052B   26058.88401208 -.00000051  00000+0  00000+0 0  9991
2 32276  65.6536 319.7402 0010752 328.8652 209.7079  2.13103125142759
COSMOS 2434 (721)       
1 32393U 07065A   26055.43328079  .00000056  00000+0  00000+0 0  9991
2 32393  64.3189 195.7156 0004105  71.0412 286.3387  2.13101226141362
COSMOS 2436 (723)       
1 32395U 07065C   26058.37058350  .00000007  00000+0  00000+0 0  9997
2 32395  64.3274 195.6877 0017585   7.9115 215.6207  2.13100075141381
COSMOS 2456 (730)       
1 36111U 09070A   26059.11669014  .00000038  00000+0  00000+0 0  9997
2 36111  64.9459  74.6922 0006146 303.7643 156.9221  2.13103529126106
COSMOS 2457 (733)       
1 36112U 09070B   26058.28782084  .00000037  00000+0  00000+0 0  9997
2 36112  64.9306  74.5665 0002374 195.1136 118.1101  2.13100857126085
COSMOS 2460 (732)       
1 36402U 10007C   26058.88604568 -.00000048  00000+0  00000+0 0  9990
2 36402  65.4828 318.1678 0001786   4.0182  48.8312  2.13105950124404
COSMOS 2476 (744)       
1 37867U 11064A   26059.11067278  .00000040  00000+0  00000+0 0  9999
2 37867  65.2062  76.5534 0025231 240.9314 123.4830  2.13103643111445
COSMOS 2477 (745)       
1 37868U 11064B   26059.10548666  .00000040  00000+0  00000+0 0  9994
2 37868  65.2125  76.6320 0022342 242.4126 298.6951  2.13102745111438
COSMOS 2475 (743)       
1 37869U 11064C   26054.40569505  .00000023  00000+0  00000+0 0  9999
2 37869  65.2164  76.8115 0028194 253.5225 237.6760  2.13101744111349
COSMOS 2485 (747)       
1 39155U 13019A   26059.04197693  .00000041  00000+0  00000+0 0  9991
2 39155  65.3565  77.2671 0025554 236.5000 123.3127  2.13103018 99952
COSMOS 2492 (754)       
1 39620U 14012A   26059.00079106 -.00000047  00000+0  00000+0 0  9993
2 39620  65.3606 317.6495 0013387 325.1636  34.8003  2.13103114 92916
COSMOS 2500 (755)       
1 40001U 14032A   26058.23344873 -.00000048  00000+0  00000+0 0  9991
2 40001  65.2964 317.4319 0005281 206.4561 153.5667  2.13105837 91112
COSMOS 2501 (702K)      
1 40315U 14075A   26058.49394714  .00000002  00000+0  00000+0 0  9992
2 40315  63.6173 194.1662 0020677 205.5368 154.3276  2.13101125 87516
COSMOS 2514 (751)       
1 41330U 16008A   26058.94761707 -.00000045  00000+0  00000+0 0  9996
2 41330  65.0853 316.7582 0009216 210.4128 149.5858  2.13102518 78297
COSMOS 2522 (752)       
1 42939U 17055A   26055.50072103  .00000054  00000+0  00000+0 0  9998
2 42939  64.0796 195.7165 0006977 226.0717 133.8487  2.13101695 65574
COSMOS 2527 (756)       
1 43508U 18053A   26057.80827219  .00000038  00000+0  00000+0 0  9993
2 43508  65.5144  77.5887 0009676 244.1696 115.7873  2.13102060 59921
COSMOS 2529 (757)       
1 43687U 18086A   26058.37448306  .00000008  00000+0  00000+0 0  9993
2 43687  64.2955 196.2992 0007960 253.0448 106.8346  2.13101880 56943
COSMOS 2534 (758)       
1 44299U 19030A   26057.78657899  .00000018  00000+0  00000+0 0  9997
2 44299  64.3691 196.3304 0009280 280.9126 122.4167  2.13102174 52575
COSMOS 2544 (759)       
1 44850U 19088A   26057.75290463  .00000038  00000+0  00000+0 0  9992
2 44850  65.5019  77.4160 0015779 258.6550 101.2241  2.13101874 48363
COSMOS 2545 (760)       
1 45358U 20018A   26055.13290572 -.00000047  00000+0  00000+0 0  9993
2 45358  64.4229 316.3952 0008661 251.9262 108.0301  2.13102520 46257
COSMOS 2547 (705K)      
1 46805U 20075A   26054.38286331  .00000068  00000+0  00000+0 0  9990
2 46805  64.6000 196.2700 0006493 228.7507 131.1718  2.13100264 41487
COSMOS 2557 (706K)      
1 52984U 22075A   26053.14018637 -.00000043  00000+0  00000+0 0  9996
2 52984  64.3658 318.5411 0012034 283.3616  76.5579  2.13101880 28265
COSMOS 2559 (707K)      
1 54031U 22130A   26058.12142693 -.00000051  00000+0  00000+0 0  9995
2 54031  64.3350 318.4519 0010603 182.4917 177.5510  2.13101131 26343
COSMOS 2564 (761)       
1 54377U 22161A   26058.43424284  .00000008  00000+0  00000+0 0  9996
2 54377  64.7417 196.3516 0009298 208.8082 151.1071  2.13101851 25290
COSMOS 2569 (703K)      
1 57517U 23114A   26058.44726072  .00000039  00000+0  00000+0 0  9999
2 57517  65.2386  76.3203 0012852 291.2771  68.6415  2.13103864 19924
COSMOS 2584 (704K)      
1 63130U 25042A   26058.80336529  .00000039  00000+0  00000+0 0  9993
2 63130  65.0207  76.5197 0007838 236.0467 123.9351  2.13103242  7711
COSMOS 2596 (708K)      
1 65590U 25206B   26058.88392542 -.00000050  00000+0  00000+0 0  9996
2 65590  64.6968 318.7928 0012974 315.0189 224.3711  2.13100015  3583
